[{"OBJECT_NAME":"METEOR-M 2","OBJECT_ID":"2014-037A","EPOCH":"2026-03-09T23:09:30.537792","MEAN_MOTION":14.21428734,"ECCENTRICITY":0.00053128,"INCLINATION":98.5035,"RA_OF_ASC_NODE":48.2672,"ARG_OF_PERICENTER":336.7967,"MEAN_ANOMALY":23.2971,"EPHEMERIS_TYPE":0,"CLASSIFICATION_TYPE":"U","NORAD_CAT_ID":40069,"ELEMENT_SET_NO":999,"REV_AT_EPOCH":60522,"BSTAR":2.6040138e-5,"MEAN_MOTION_DOT":1.5e-7,"MEAN_MOTION_DDOT":0},{"OBJECT_NAME":"THORAD AGENA D DEB","OBJECT_ID":"1970-025AN","EPOCH":"2026-03-09T21:54:23.942304","MEAN_MOTION":14.16285735,"ECCENTRICITY":0.00244949,"INCLINATION":100.0229,"RA_OF_ASC_NODE":229.4444,"ARG_OF_PERICENTER":343.3432,"MEAN_ANOMALY":16.6931,"EPHEMERIS_TYPE":0,"CLASSIFICATION_TYPE":"U","NORAD_CAT_ID":4654,"ELEMENT_SET_NO":999,"REV_AT_EPOCH":82588,"BSTAR":0.0015755706,"MEAN_MOTION_DOT":3.08e-5,"MEAN_MOTION_DDOT":0}]
